[{"OBJECT_NAME":"STARLINK-32207","OBJECT_ID":"2024-131E","EPOCH":"2026-03-09T22:31:55.363872","MEAN_MOTION":15.30186094,"ECCENTRICITY":0.00012082,"INCLINATION":53.1611,"RA_OF_ASC_NODE":51.5073,"ARG_OF_PERICENTER":91.7757,"MEAN_ANOMALY":268.3382,"EPHEMERIS_TYPE":0,"CLASSIFICATION_TYPE":"U","NORAD_CAT_ID":60259,"ELEMENT_SET_NO":999,"REV_AT_EPOCH":9175,"BSTAR":7.90079e-6,"MEAN_MOTION_DOT":-1.25e-6,"MEAN_MOTION_DDOT":0},{"OBJECT_NAME":"FENGYUN 1C DEB","OBJECT_ID":"1999-025AJJ","EPOCH":"2026-03-09T18:40:58.380672","MEAN_MOTION":15.18672988,"ECCENTRICITY":0.00638575,"INCLINATION":98.7226,"RA_OF_ASC_NODE":259.4919,"ARG_OF_PERICENTER":168.3626,"MEAN_ANOMALY":191.9098,"EPHEMERIS_TYPE":0,"CLASSIFICATION_TYPE":"U","NORAD_CAT_ID":30520,"ELEMENT_SET_NO":999,"REV_AT_EPOCH":2360,"BSTAR":0.0014000942,"MEAN_MOTION_DOT":0.0003064,"MEAN_MOTION_DDOT":0}]
